IRIDIUM 155             
1 43573U 18061E   25311.10765671  .00000124  00000+0  37135-4 0  9992
2 43573  86.3973 149.5237 0001836  83.4648 276.6757 14.34217024381529
IRIDIUM 154             
1 43574U 18061F   25311.08863962 -.00000016  00000+0 -12695-4 0  9998
2 43574  86.3981 149.6538 0001988  88.0058 272.1366 14.34217440381572
IRIDIUM 163             
1 43575U 18061G   25311.06961167 -.00000037  00000+0 -20405-4 0  9994
2 43575  86.3975 149.5842 0002086  84.1965 275.9468 14.34217157381543
IRIDIUM 156             
1 43576U 18061H   25311.11400905 -.00000006  00000+0 -92650-5 0  9997
2 43576  86.3977 149.5726 0001673  86.0498 274.0889 14.34217429381549
IRIDIUM 164             
1 43577U 18061J   25311.09498251 -.00000076  00000+0 -34241-4 0  9994
2 43577  86.3980 149.6174 0001941  93.3686 266.7732 14.34216925381589
IRIDIUM 159             
1 43578U 18061K   25311.06326796 -.00000002  00000+0 -78665-5 0  9994
2 43578  86.3977 149.5723 0002134  87.9717 272.1723 14.34217758381546
IRIDIUM 180             
1 43922U 19002A   25310.85346017  .00000076  00000+0  20204-4 0  9991
2 43922  86.3938  86.5440 0002202  89.0182 271.1266 14.34217497357125
IRIDIUM 176             
1 43923U 19002B   25310.83662081  .00001461  00000+0  22778-3 0  9998
2 43923  86.6061  86.5262 0001783  86.1168 274.0253 14.72247699366535
IRIDIUM 168             
1 43924U 19002C   25310.84711730  .00000104  00000+0  30028-4 0  9997
2 43924  86.3943  86.6181 0002079  91.0390 269.1044 14.34218096357107
IRIDIUM 173             
1 43925U 19002D   25310.48558964  .00000121  00000+0  36211-4 0  9995
2 43925  86.3938  86.6671 0002086  87.9705 272.1730 14.34218045357030
IRIDIUM 169             
1 43926U 19002E   25310.88244546  .00000146  00000+0  41079-4 0  9993
2 43926  86.4195 118.1519 0001669  53.6647 306.4705 14.38608192358269
IRIDIUM 172             
1 43927U 19002F   25310.61878467  .00000019  00000+0 -31294-6 0  9990
2 43927  86.3941  86.6190 0002183  91.6168 268.5278 14.34217447357069
IRIDIUM 175             
1 43928U 19002G   25311.17166793  .00001418  00000+0  22085-3 0  9993
2 43928  86.1535  30.7954 0001891 114.7220 245.4194 14.72251840366570
IRIDIUM 171             
1 43929U 19002H   25310.80906117  .00000313  00000+0  10485-3 0  9999
2 43929  86.3950  86.8212 0001836  98.8021 261.3383 14.34219119357087
IRIDIUM 170             
1 43930U 19002J   25310.84279733  .00001415  00000+0  22050-3 0  9997
2 43930  86.6065  86.5284 0002188  91.2270 268.9198 14.72253630366545
IRIDIUM 167             
1 43931U 19002K   25310.80271829  .00000043  00000+0  83098-5 0  9999
2 43931  86.3941  86.5623 0001623  97.1677 262.9703 14.34217764357083
IRIDIUM 181             
1 56726U 23068S   25311.04443684  .00000242  00000+0  66008-4 0  9991
2 56726  86.4513 149.6343 0002181 103.1777 256.9667 14.43325119130393
IRIDIUM 177             
1 56727U 23068T   25310.91328550  .00002160  00000+0  28068-3 0  9995
2 56727  86.1958  74.3419 0002097  86.3215 273.8245 14.80243012133482
IRIDIUM 174             
1 56728U 23068U   25310.83044229  .00001599  00000+0  24966-3 0  9993
2 56728  86.6072  86.6586 0002442  83.7939 276.3556 14.72254681133303
IRIDIUM 178             
1 56729U 23068V   25310.96999102  .00000669  00000+0  84654-4 0  9995
2 56729  86.6512 118.2469 0001921  91.5567 268.5874 14.80238237133494
IRIDIUM 179             
1 56730U 23068W   25310.49140721  .00000002  00000+0 -31431-5 0  9998
2 56730  86.6766 126.7593 0001501 100.9426 259.1965 14.80233684133423
